ORBCOMM FM33            
1 25983U 99065D   24186.77354842  .00001141  00000+0  42130-3 0  9996
2 25983  45.0276 208.1774 0006243 116.6621 243.4867 14.37899133286020
ORBCOMM FM36            
1 25984U 99065E   24187.03315493  .00001592  00000+0  59333-3 0  9999
2 25984  45.0401 293.3931 0003043 315.9433  44.1172 14.35827882285071
ORBCOMM FM35            
1 25985U 99065F   24186.74470734  .00001192  00000+0  46108-3 0  9999
2 25985  45.0409 297.5962 0002396 132.3116 227.7935 14.35338449284834
ORBCOMM FM34            
1 25986U 99065G   24186.71626104  .00001236  00000+0  47627-3 0  9997
2 25986  45.0403 298.2756 0001810  32.3881 327.7078 14.35314827284941
ORBCOMM FM38            
1 33060U 08031A   24186.94433788  .00002470  00000+0  36816-3 0  9990
2 33060  48.4391 166.0905 0005933 348.5842  11.4936 14.77897766863322
ORBCOMM FM41            
1 33061U 08031B   24186.94044751  .00002359  00000+0  35512-3 0  9997
2 33061  48.4423 172.8616 0005210 334.9009  66.5209 14.77620514862828
ORBCOMM FM29            
1 33062U 08031C   24187.21104203  .00002484  00000+0  37288-3 0  9999
2 33062  48.4374 179.6156 0007090 334.7410 117.0993 14.77568768863162
ORBCOMM FM39            
1 33063U 08031D   24186.92718968  .00001798  00000+0  28452-3 0  9996
2 33063  48.4387 201.9068 0008133 309.4120  50.6073 14.76522491862425
